NORAD_CAT_ID,OBJECT_NAME,OBJECT_TYPE,EPOCH,MEAN_MOTION,ECCENTRICITY,INCLINATION,RA_OF_ASC_NODE,ARG_OF_PERICENTER,MEAN_ANOMALY,BSTAR,MEAN_MOTION_DOT,MEAN_MOTION_DDOT,TLE_LINE0,TLE_LINE1,TLE_LINE2,SEMIMAJOR_AXIS,PERIOD,APOGEE,PERIGEE,DECAYED
52454.0,STARLINK-3888,PAYLOAD,2024-01-25 22:59:29,15.08834949,0.0001702,53.2172,302.5503,63.5058,296.6108,2.4972e-05,1.09e-06,0.0,0 STARLINK-3888,1 52454U 22049D   24025.95797732  .00000109  00000-0  24972-4 0  9997,2 52454  53.2172 302.5503 0001702  63.5058 296.6108 15.08834949 95307,6917.896,95.438,540.938,538.583,0.0
52454.0,STARLINK-3888,PAYLOAD,2024-01-26 00:34:52,15.08837453,0.0001859,53.2178,302.2539,59.3577,300.7599,4.0557e-05,3.57e-06,0.0,0 STARLINK-3888,1 52454U 22049D   24026.02421799  .00000357  00000-0  40557-4 0  9995,2 52454  53.2178 302.2539 0001859  59.3577 300.7599 15.08837453 95473,6917.888,95.438,541.039,538.467,0.0
52454.0,STARLINK-3888,PAYLOAD,2024-01-27 00:25:39,15.08842461,0.000202,53.2182,297.7839,58.9153,301.2037,0.00021991,3.214e-05,0.0,0 STARLINK-3888,1 52454U 22049D   24027.01781704  .00003214  00000-0  21991-3 0  9995,2 52454  53.2182 297.7839 0002020  58.9153 301.2037 15.08842461 95462,6917.873,95.437,541.135,538.34,0.0
52454.0,STARLINK-3888,PAYLOAD,2024-01-27 17:54:53,15.08845284,0.0001766,53.2174,294.5129,80.738,279.3812,0.00016828,2.391e-05,0.0,0 STARLINK-3888,1 52454U 22049D   24027.74645447  .00002391  00000-0  16828-3 0  9996,2 52454  53.2174 294.5129 0001766  80.7380 279.3812 15.08845284 95733,6917.864,95.437,540.951,538.508,0.0
52454.0,STARLINK-3888,PAYLOAD,2024-01-27 21:05:39,15.08843771,0.0001693,53.2175,293.9174,95.981,264.1375,0.00012946,1.773e-05,0.0,0 STARLINK-3888,1 52454U 22049D   24027.87893334  .00001773  00000-0  12946-3 0  9990,2 52454  53.2175 293.9174 0001693  95.9810 264.1375 15.08843771 95591,6917.869,95.437,540.905,538.563,0.0
52454.0,STARLINK-3888,PAYLOAD,2024-01-28 00:16:26,15.08843652,0.0001639,53.2182,293.3224,96.3003,263.8176,0.00011001,1.463e-05,0.0,0 STARLINK-3888,1 52454U 22049D   24028.01141228  .00001463  00000-0  11001-3 0  9992,2 52454  53.2182 293.3224 0001639  96.3003 263.8176 15.08843652 95614,6917.869,95.437,540.868,538.6,0.0
52454.0,STARLINK-3888,PAYLOAD,2024-01-28 17:45:41,15.08836558,0.000171,53.2183,290.052,93.5411,266.5776,2.6455e-05,1.33e-06,0.0,0 STARLINK-3888,1 52454U 22049D   24028.74005988  .00000133  00000-0  26455-4 0  9997,2 52454  53.2183 290.0520 0001710  93.5411 266.5776 15.08836558 95882,6917.891,95.438,540.939,538.573,0.0
52454.0,STARLINK-3888,PAYLOAD,2024-01-28 22:31:50,15.08835238,0.0001857,53.2193,289.1594,116.9274,243.1908,-2.0462e-06,-3.21e-06,0.0,0 STARLINK-3888,1 52454U 22049D   24028.93877964 -.00000321  00000-0 -20462-5 0  9993,2 52454  53.2193 289.1594 0001857 116.9274 243.1908 15.08835238 95750,6917.895,95.438,541.045,538.475,0.0
52454.0,STARLINK-3888,PAYLOAD,2024-01-29 17:36:27,15.08843249,0.0001365,53.2178,285.5869,106.7149,253.3993,4.964e-05,5.02e-06,0.0,0 STARLINK-3888,1 52454U 22049D   24029.73365404  .00000502  00000-0  49640-4 0  9990,2 52454  53.2178 285.5869 0001365 106.7149 253.3993 15.08843249 96030,6917.87,95.437,540.68,538.791,0.0
52454.0,STARLINK-3888,PAYLOAD,2024-01-30 22:13:24,15.08836677,0.0001154,53.217,280.2334,76.9507,283.1614,6.467e-05,7.41e-06,0.0,0 STARLINK-3888,1 52454U 22049D   24030.92597944  .00000741  00000-0  64670-4 0  9994,2 52454  53.2170 280.2334 0001154  76.9507 283.1614 15.08836677 96053,6917.891,95.438,540.554,538.957,0.0
52454.0,STARLINK-3888,PAYLOAD,2024-01-31 18:53:25,15.08836155,0.0001193,53.2171,276.3723,80.3637,279.749,1.5796e-05,-3.6e-07,0.0,0 STARLINK-3888,1 52454U 22049D   24031.78710325 -.00000036  00000-0  15796-4 0  9992,2 52454  53.2171 276.3723 0001193  80.3637 279.7490 15.08836155 96186,6917.892,95.438,540.582,538.932,0.0
52454.0,STARLINK-3888,PAYLOAD,2024-01-31 23:39:34,15.08840521,0.0001198,53.2165,275.4792,83.8044,276.3085,4.5327e-05,4.34e-06,0.0,0 STARLINK-3888,1 52454U 22049D   24031.98581954  .00000434  00000-0  45327-4 0  9992,2 52454  53.2165 275.4792 0001198  83.8044 276.3085 15.08840521 96376,6917.879,95.438,540.573,538.915,0.0
52454.0,STARLINK-3888,PAYLOAD,2024-02-01 23:30:21,15.08839123,0.0001269,53.2166,271.0182,87.842,272.2718,0.0001075,1.423e-05,0.0,0 STARLINK-3888,1 52454U 22049D   24032.97941873  .00001423  00000-0  10750-3 0  9992,2 52454  53.2166 271.0182 0001269  87.8420 272.2718 15.08839123 96366,6917.883,95.438,540.626,538.87,0.0
52454.0,STARLINK-3888,PAYLOAD,2024-02-02 15:24:13,15.08838969,0.000127,53.217,268.0437,93.7086,266.4051,1.5024e-05,-4.9e-07,0.0,0 STARLINK-3888,1 52454U 22049D   24033.64182289 -.00000049  00000-0  15024-4 0  9999,2 52454  53.2170 268.0437 0001270  93.7086 266.4051 15.08838969 96627,6917.884,95.438,540.627,538.87,0.0
52454.0,STARLINK-3888,PAYLOAD,2024-02-02 21:45:45,15.08840156,0.000135,53.2165,266.8545,86.5388,273.5758,2.7268e-05,1.46e-06,0.0,0 STARLINK-3888,1 52454U 22049D   24033.90678191  .00000146  00000-0  27268-4 0  9990,2 52454  53.2165 266.8545 0001350  86.5388 273.5758 15.08840156 96502,6917.88,95.438,540.679,538.811,0.0
52454.0,STARLINK-3888,PAYLOAD,2024-02-03 00:56:32,15.08842385,0.0001361,53.2165,266.2593,87.8419,272.2729,4.0028e-05,3.49e-06,0.0,0 STARLINK-3888,1 52454U 22049D   24034.03925989  .00000349  00000-0  40028-4 0  9999,2 52454  53.2165 266.2593 0001361  87.8419 272.2729 15.08842385 96522,6917.873,95.437,540.68,538.797,0.0
52454.0,STARLINK-3888,PAYLOAD,2024-02-03 20:01:09,15.08837248,0.0001405,53.2166,262.6909,90.9193,269.196,6.1209e-05,6.86e-06,0.0,0 STARLINK-3888,1 52454U 22049D   24034.83414250  .00000686  00000-0  61209-4 0  9999,2 52454  53.2166 262.6909 0001405  90.9193 269.1960 15.08837248 96802,6917.889,95.438,540.726,538.782,0.0
52454.0,STARLINK-3888,PAYLOAD,2024-02-03 21:36:33,15.08837843,0.0001445,53.2165,262.3936,87.5268,272.589,6.1832e-05,6.96e-06,0.0,0 STARLINK-3888,1 52454U 22049D   24034.90038210  .00000696  00000-0  61832-4 0  9998,2 52454  53.2165 262.3936 0001445  87.5268 272.5890 15.08837843 96651,6917.887,95.438,540.752,538.752,0.0
52454.0,STARLINK-3888,PAYLOAD,2024-02-04 19:51:56,15.0884449,0.0001456,53.2167,258.2298,101.2934,258.8222,7.9676e-05,9.8e-06,0.0,0 STARLINK-3888,1 52454U 22049D   24035.82773718  .00000980  00000-0  79676-4 0  9990,2 52454  53.2167 258.2298 0001456 101.2934 258.8222 15.08844490 96791,6917.867,95.437,540.739,538.724,0.0
52454.0,STARLINK-3888,PAYLOAD,2024-02-05 00:38:05,15.08845331,0.0001422,53.2163,257.3374,99.1871,260.9282,8.125e-05,1.006e-05,0.0,0 STARLINK-3888,1 52454U 22049D   24036.02645586  .00001006  00000-0  81250-4 0  9995,2 52454  53.2163 257.3374 0001422  99.1871 260.9282 15.08845331 96986,6917.864,95.437,540.713,538.745,0.0
52454.0,STARLINK-3888,PAYLOAD,2024-02-05 19:42:44,15.08836869,0.0001486,53.2174,253.7648,97.0918,263.0243,-4.5066e-06,-3.6e-06,0.0,0 STARLINK-3888,1 52454U 22049D   24036.82134519 -.00000360  00000-0 -45066-5 0  9992,2 52454  53.2174 253.7648 0001486  97.0918 263.0243 15.08836869 97103,6917.89,95.438,540.783,538.727,0.0
52454.0,STARLINK-3888,PAYLOAD,2024-02-05 21:18:07,15.08836609,0.0001438,53.2174,253.4675,91.4038,268.7119,-1.1282e-05,-4.67e-06,0.0,0 STARLINK-3888,1 52454U 22049D   24036.88758576 -.00000467  00000-0 -11282-4 0  9993,2 52454  53.2174 253.4675 0001438  91.4038 268.7119 15.08836609 96956,6917.891,95.438,540.751,538.761,0.0
52454.0,STARLINK-3888,PAYLOAD,2024-02-06 00:28:53,15.088344,0.0001474,53.2172,252.8746,91.5865,268.5296,-2.4771e-05,-6.82e-06,0.0,0 STARLINK-3888,1 52454U 22049D   24037.02006799 -.00000682  00000-0 -24771-4 0  9999,2 52454  53.2172 252.8746 0001474  91.5865 268.5296 15.08834400 96978,6917.898,95.438,540.782,538.743,0.0
52454.0,STARLINK-3888,PAYLOAD,2024-02-06 19:33:30,15.08842521,0.0001366,53.217,249.3098,90.2304,269.8845,7.2119e-05,8.6e-06,0.0,0 STARLINK-3888,1 52454U 22049D   24037.81493976  .00000860  00000-0  72119-4 0  9998,2 52454  53.2170 249.3098 0001366  90.2304 269.8845 15.08842521 97250,6917.873,95.437,540.683,538.793,0.0
52454.0,STARLINK-3888,PAYLOAD,2024-02-07 19:24:18,15.08837374,0.0001242,53.2156,244.8499,77.417,282.6961,3.6935e-05,3e-06,0.0,0 STARLINK-3888,1 52454U 22049D   24038.80854641  .00000300  00000-0  36935-4 0  9993,2 52454  53.2156 244.8499 0001242  77.4170 282.6961 15.08837374 97409,6917.888,95.438,540.613,538.894,0.0
52454.0,STARLINK-3888,PAYLOAD,2024-02-07 20:59:41,15.08837081,0.0001239,53.2155,244.5525,78.1312,281.9819,3.3331e-05,2.43e-06,0.0,0 STARLINK-3888,1 52454U 22049D   24038.87478662  .00000243  00000-0  33331-4 0  9998,2 52454  53.2155 244.5525 0001239  78.1312 281.9819 15.08837081 97259,6917.889,95.438,540.611,538.897,0.0
52454.0,STARLINK-3888,PAYLOAD,2024-02-08 12:53:33,15.08835542,0.0001418,53.2166,241.58,90.8944,269.2211,1.632e-07,-2.85e-06,0.0,0 STARLINK-3888,1 52454U 22049D   24039.53719023 -.00000285  00000-0  16320-6 0  9999,2 52454  53.2166 241.5800 0001418  90.8944 269.2211 15.08835542 97351,6917.894,95.438,540.74,538.778,0.0
52454.0,STARLINK-3888,PAYLOAD,2024-02-08 19:15:06,15.08831427,0.0001451,53.2169,240.3897,89.3366,270.7792,-1.1042e-05,-4.64e-06,0.0,0 STARLINK-3888,1 52454U 22049D   24039.80215431 -.00000464  00000-0 -11042-4 0  9997,2 52454  53.2169 240.3897 0001451  89.3366 270.7792 15.08831427 97556,6917.907,95.438,540.775,538.768,0.0
52454.0,STARLINK-3888,PAYLOAD,2024-02-08 20:50:29,15.08832109,0.0001401,53.2166,240.0923,88.65,271.4652,-6.7155e-06,-3.95e-06,0.0,0 STARLINK-3888,1 52454U 22049D   24039.86839385 -.00000395  00000-0 -67155-5 0  9993,2 52454  53.2166 240.0923 0001401  88.6500 271.4652 15.08832109 97402,6917.905,95.438,540.739,538.8,0.0
52454.0,STARLINK-3888,PAYLOAD,2024-02-09 12:44:20,15.08839418,0.0001461,53.2173,237.118,87.0745,273.0414,7.6466e-05,9.29e-06,0.0,0 STARLINK-3888,1 52454U 22049D   24040.53078845  .00000929  00000-0  76466-4 0  9990,2 52454  53.2173 237.1180 0001461  87.0745 273.0414 15.08839418 97507,6917.882,95.438,540.758,538.736,0.0
